[{"OBJECT_NAME":"STARLINK-35674","OBJECT_ID":"2025-299R","EPOCH":"2026-03-09T17:45:50.309568","MEAN_MOTION":15.34683332,"ECCENTRICITY":0.00029294,"INCLINATION":43.0003,"RA_OF_ASC_NODE":168.7409,"ARG_OF_PERICENTER":355.3183,"MEAN_ANOMALY":4.7644,"EPHEMERIS_TYPE":0,"CLASSIFICATION_TYPE":"U","NORAD_CAT_ID":67117,"ELEMENT_SET_NO":999,"REV_AT_EPOCH":1312,"BSTAR":-0.0082098648,"MEAN_MOTION_DOT":-0.00272339,"MEAN_MOTION_DDOT":0},{"OBJECT_NAME":"CZ-6A DEB","OBJECT_ID":"2024-140ABG","EPOCH":"2026-03-09T16:43:29.524800","MEAN_MOTION":15.18896608,"ECCENTRICITY":0.00616087,"INCLINATION":89.2171,"RA_OF_ASC_NODE":295.9508,"ARG_OF_PERICENTER":79.2706,"MEAN_ANOMALY":281.5467,"EPHEMERIS_TYPE":0,"CLASSIFICATION_TYPE":"U","NORAD_CAT_ID":61498,"ELEMENT_SET_NO":999,"REV_AT_EPOCH":8006,"BSTAR":0.0048163661,"MEAN_MOTION_DOT":0.0010689,"MEAN_MOTION_DDOT":0}]
